STARLINK-11672 [DTC]    
1 63665U 25085B   25258.05401253  .00185732  00000+0  14165-2 0  9992
2 63665  42.9995 256.6680 0003974 296.5149  63.5310 15.70873687 23238
STARLINK-11664 [DTC]    
1 63666U 25085C   25258.04974105  .00332298  00000+0  24695-2 0  9993
2 63666  42.9995 257.5288 0001627 242.3336 117.7367 15.71046891 22629
STARLINK-11666 [DTC]    
1 63667U 25085D   25258.30316109  .00450040  00000+0  33074-2 0  9994
2 63667  42.9994 255.9872 0000687 253.5193 106.5599 15.70959929 22560
STARLINK-11663 [DTC]    
1 63668U 25085E   25258.29785200  .00518080  00000+0  37703-2 0  9997
2 63668  43.0000 255.9443 0000790 208.5132 151.5692 15.70991589 22666
STARLINK-11595 [DTC]    
1 63669U 25085F   25258.29254192  .00468326  00000+0  34119-2 0  9994
2 63669  43.0025 255.9018 0001650 251.5844 108.4845 15.71115635 23300
STARLINK-11599 [DTC]    
1 63670U 25085G   25258.22365239  .00509478  00000+0  37182-2 0  9991
2 63670  42.9997 256.2413 0002267 294.0229  66.0401 15.70952912 22644
STARLINK-11603 [DTC]    
1 63671U 25085H   25258.28192278  .00492875  00000+0  36007-2 0  9996
2 63671  42.9993 255.8143 0000869 190.2979 169.7871 15.70975380 22658
STARLINK-11644 [DTC]    
1 63672U 25085J   25258.27661388  .00363090  00000+0  26989-2 0  9993
2 63672  42.9993 255.7717 0000740 253.5051 106.5735 15.70948656 22651
STARLINK-11634 [DTC]    
1 63673U 25085K   25258.27130526  .00671802  00000+0  47529-2 0  9995
2 63673  42.9991 255.7293 0002017 228.9254 131.1439 15.71214585 22652
STARLINK-11656 [DTC]    
1 63674U 25085L   25258.26599562  .00352362  00000+0  26238-2 0  9995
2 63674  42.9986 255.6855 0000511 199.2440 160.8408 15.70938268 22659
STARLINK-11655 [DTC]    
1 63675U 25085M   25258.06994023  .00170104  00000+0  13009-2 0  9999
2 63675  42.9994 256.7926 0003063 288.3298  71.7236 15.70861249 22626
STARLINK-11661 [DTC]    
1 63676U 25085N   25258.00104628  .00265189  00000+0  19949-2 0  9995
2 63676  42.9987 257.1324 0001116 223.1768 136.9012 15.70959823 23265
STARLINK-33816          
1 63677U 25085P   25257.44321218  .00015763  00000+0  58097-3 0  9998
2 63677  42.9988 306.4082 0000795 291.2916  68.7851 15.27587804 22012
STARLINK-33861          
1 63678U 25085Q   25258.16759785  .00027170  00000+0  99187-3 0  9993
2 63678  42.9963 302.3846 0000317 169.7648 190.3210 15.27624326 22012
STARLINK-33850          
1 63679U 25085R   25258.14832142  .00029995  00000+0  10938-2 0  9994
2 63679  42.9994 302.2419 0001102 267.4157  92.6569 15.27619478 22019
STARLINK-33887          
1 63680U 25085S   25258.11748992  .00018934  00000+0  69560-3 0  9999
2 63680  43.0049 302.0075 0001763 285.9305  74.1352 15.27589820 22082
