[{"OBJECT_NAME":"STARLINK-11672 [DTC]","OBJECT_ID":"2025-085B","EPOCH":"2025-09-15T01:17:46.682592","MEAN_MOTION":15.70873687,"ECCENTRICITY":0.00039748,"INCLINATION":42.9995,"RA_OF_ASC_NODE":256.668,"ARG_OF_PERICENTER":296.5149,"MEAN_ANOMALY":63.531,"EPHEMERIS_TYPE":0,"CLASSIFICATION_TYPE":"U","NORAD_CAT_ID":63665,"ELEMENT_SET_NO":999,"REV_AT_EPOCH":2323,"BSTAR":0.0014164925,"MEAN_MOTION_DOT":0.00185732,"MEAN_MOTION_DDOT":0},{"OBJECT_NAME":"STARLINK-11664 [DTC]","OBJECT_ID":"2025-085C","EPOCH":"2025-09-15T01:11:37.626720","MEAN_MOTION":15.71046891,"ECCENTRICITY":0.00016273,"INCLINATION":42.9995,"RA_OF_ASC_NODE":257.5288,"ARG_OF_PERICENTER":242.3336,"MEAN_ANOMALY":117.7367,"EPHEMERIS_TYPE":0,"CLASSIFICATION_TYPE":"U","NORAD_CAT_ID":63666,"ELEMENT_SET_NO":999,"REV_AT_EPOCH":2262,"BSTAR":0.0024695057,"MEAN_MOTION_DOT":0.00332298,"MEAN_MOTION_DDOT":0},{"OBJECT_NAME":"STARLINK-11666 [DTC]","OBJECT_ID":"2025-085D","EPOCH":"2025-09-15T07:16:33.118176","MEAN_MOTION":15.70959929,"ECCENTRICITY":6.877e-5,"INCLINATION":42.9994,"RA_OF_ASC_NODE":255.9872,"ARG_OF_PERICENTER":253.5193,"MEAN_ANOMALY":106.5599,"EPHEMERIS_TYPE":0,"CLASSIFICATION_TYPE":"U","NORAD_CAT_ID":63667,"ELEMENT_SET_NO":999,"REV_AT_EPOCH":2256,"BSTAR":0.0033074036,"MEAN_MOTION_DOT":0.0045004,"MEAN_MOTION_DDOT":0},{"OBJECT_NAME":"STARLINK-11663 [DTC]","OBJECT_ID":"2025-085E","EPOCH":"2025-09-15T07:08:54.412800","MEAN_MOTION":15.70991589,"ECCENTRICITY":7.905e-5,"INCLINATION":43,"RA_OF_ASC_NODE":255.9443,"ARG_OF_PERICENTER":208.5132,"MEAN_ANOMALY":151.5692,"EPHEMERIS_TYPE":0,"CLASSIFICATION_TYPE":"U","NORAD_CAT_ID":63668,"ELEMENT_SET_NO":999,"REV_AT_EPOCH":2266,"BSTAR":0.0037703498,"MEAN_MOTION_DOT":0.0051808,"MEAN_MOTION_DDOT":0},{"OBJECT_NAME":"STARLINK-11595 [DTC]","OBJECT_ID":"2025-085F","EPOCH":"2025-09-15T07:01:15.621888","MEAN_MOTION":15.71115635,"ECCENTRICITY":0.00016502,"INCLINATION":43.0025,"RA_OF_ASC_NODE":255.9018,"ARG_OF_PERICENTER":251.5844,"MEAN_ANOMALY":108.4845,"EPHEMERIS_TYPE":0,"CLASSIFICATION_TYPE":"U","NORAD_CAT_ID":63669,"ELEMENT_SET_NO":999,"REV_AT_EPOCH":2330,"BSTAR":0.0034119304,"MEAN_MOTION_DOT":0.00468326,"MEAN_MOTION_DDOT":0},{"OBJECT_NAME":"STARLINK-11599 [DTC]","OBJECT_ID":"2025-085G","EPOCH":"2025-09-15T05:22:03.566496","MEAN_MOTION":15.70952912,"ECCENTRICITY":0.00022679,"INCLINATION":42.9997,"RA_OF_ASC_NODE":256.2413,"ARG_OF_PERICENTER":294.0229,"MEAN_ANOMALY":66.0401,"EPHEMERIS_TYPE":0,"CLASSIFICATION_TYPE":"U","NORAD_CAT_ID":63670,"ELEMENT_SET_NO":999,"REV_AT_EPOCH":2264,"BSTAR":0.0037181939,"MEAN_MOTION_DOT":0.00509478,"MEAN_MOTION_DDOT":0},{"OBJECT_NAME":"STARLINK-11603 [DTC]","OBJECT_ID":"2025-085H","EPOCH":"2025-09-15T06:45:58.128192","MEAN_MOTION":15.7097538,"ECCENTRICITY":8.693e-5,"INCLINATION":42.9993,"RA_OF_ASC_NODE":255.8143,"ARG_OF_PERICENTER":190.2979,"MEAN_ANOMALY":169.7871,"EPHEMERIS_TYPE":0,"CLASSIFICATION_TYPE":"U","NORAD_CAT_ID":63671,"ELEMENT_SET_NO":999,"REV_AT_EPOCH":2265,"BSTAR":0.0036006674,"MEAN_MOTION_DOT":0.00492875,"MEAN_MOTION_DDOT":0},{"OBJECT_NAME":"STARLINK-11644 [DTC]","OBJECT_ID":"2025-085J","EPOCH":"2025-09-15T06:38:19.439232","MEAN_MOTION":15.70948656,"ECCENTRICITY":7.406e-5,"INCLINATION":42.9993,"RA_OF_ASC_NODE":255.7717,"ARG_OF_PERICENTER":253.5051,"MEAN_ANOMALY":106.5735,"EPHEMERIS_TYPE":0,"CLASSIFICATION_TYPE":"U","NORAD_CAT_ID":63672,"ELEMENT_SET_NO":999,"REV_AT_EPOCH":2265,"BSTAR":0.0026988845,"MEAN_MOTION_DOT":0.0036309,"MEAN_MOTION_DDOT":0},{"OBJECT_NAME":"STARLINK-11634 [DTC]","OBJECT_ID":"2025-085K","EPOCH":"2025-09-15T06:30:40.774464","MEAN_MOTION":15.71214585,"ECCENTRICITY":0.00020173,"INCLINATION":42.9991,"RA_OF_ASC_NODE":255.7293,"ARG_OF_PERICENTER":228.9254,"MEAN_ANOMALY":131.1439,"EPHEMERIS_TYPE":0,"CLASSIFICATION_TYPE":"U","NORAD_CAT_ID":63673,"ELEMENT_SET_NO":999,"REV_AT_EPOCH":2265,"BSTAR":0.0047529347,"MEAN_MOTION_DOT":0.00671802,"MEAN_MOTION_DDOT":0},{"OBJECT_NAME":"STARLINK-11656 [DTC]","OBJECT_ID":"2025-085L","EPOCH":"2025-09-15T06:23:02.021568","MEAN_MOTION":15.70938268,"ECCENTRICITY":5.114e-5,"INCLINATION":42.9986,"RA_OF_ASC_NODE":255.6855,"ARG_OF_PERICENTER":199.244,"MEAN_ANOMALY":160.8408,"EPHEMERIS_TYPE":0,"CLASSIFICATION_TYPE":"U","NORAD_CAT_ID":63674,"ELEMENT_SET_NO":999,"REV_AT_EPOCH":2265,"BSTAR":0.0026237645,"MEAN_MOTION_DOT":0.00352362,"MEAN_MOTION_DDOT":0},{"OBJECT_NAME":"STARLINK-11655 [DTC]","OBJECT_ID":"2025-085M","EPOCH":"2025-09-15T01:40:42.835872","MEAN_MOTION":15.70861249,"ECCENTRICITY":0.00030633,"INCLINATION":42.9994,"RA_OF_ASC_NODE":256.7926,"ARG_OF_PERICENTER":288.3298,"MEAN_ANOMALY":71.7236,"EPHEMERIS_TYPE":0,"CLASSIFICATION_TYPE":"U","NORAD_CAT_ID":63675,"ELEMENT_SET_NO":999,"REV_AT_EPOCH":2262,"BSTAR":0.001300893,"MEAN_MOTION_DOT":0.00170104,"MEAN_MOTION_DDOT":0},{"OBJECT_NAME":"STARLINK-11661 [DTC]","OBJECT_ID":"2025-085N","EPOCH":"2025-09-15T00:01:30.398592","MEAN_MOTION":15.70959823,"ECCENTRICITY":0.00011162,"INCLINATION":42.9987,"RA_OF_ASC_NODE":257.1324,"ARG_OF_PERICENTER":223.1768,"MEAN_ANOMALY":136.9012,"EPHEMERIS_TYPE":0,"CLASSIFICATION_TYPE":"U","NORAD_CAT_ID":63676,"ELEMENT_SET_NO":999,"REV_AT_EPOCH":2326,"BSTAR":0.0019948649,"MEAN_MOTION_DOT":0.00265189,"MEAN_MOTION_DDOT":0},{"OBJECT_NAME":"STARLINK-33816","OBJECT_ID":"2025-085P","EPOCH":"2025-09-14T10:38:13.532352","MEAN_MOTION":15.27587804,"ECCENTRICITY":7.955e-5,"INCLINATION":42.9988,"RA_OF_ASC_NODE":306.4082,"ARG_OF_PERICENTER":291.2916,"MEAN_ANOMALY":68.7851,"EPHEMERIS_TYPE":0,"CLASSIFICATION_TYPE":"U","NORAD_CAT_ID":63677,"ELEMENT_SET_NO":999,"REV_AT_EPOCH":2201,"BSTAR":0.0005809665,"MEAN_MOTION_DOT":0.00015763,"MEAN_MOTION_DDOT":0},{"OBJECT_NAME":"STARLINK-33861","OBJECT_ID":"2025-085Q","EPOCH":"2025-09-15T04:01:20.454240","MEAN_MOTION":15.27624326,"ECCENTRICITY":3.174e-5,"INCLINATION":42.9963,"RA_OF_ASC_NODE":302.3846,"ARG_OF_PERICENTER":169.7648,"MEAN_ANOMALY":190.321,"EPHEMERIS_TYPE":0,"CLASSIFICATION_TYPE":"U","NORAD_CAT_ID":63678,"ELEMENT_SET_NO":999,"REV_AT_EPOCH":2201,"BSTAR":0.00099187143,"MEAN_MOTION_DOT":0.0002717,"MEAN_MOTION_DDOT":0},{"OBJECT_NAME":"STARLINK-33850","OBJECT_ID":"2025-085R","EPOCH":"2025-09-15T03:33:34.970688","MEAN_MOTION":15.27619478,"ECCENTRICITY":0.00011023,"INCLINATION":42.9994,"RA_OF_ASC_NODE":302.2419,"ARG_OF_PERICENTER":267.4157,"MEAN_ANOMALY":92.6569,"EPHEMERIS_TYPE":0,"CLASSIFICATION_TYPE":"U","NORAD_CAT_ID":63679,"ELEMENT_SET_NO":999,"REV_AT_EPOCH":2201,"BSTAR":0.0010937625,"MEAN_MOTION_DOT":0.00029995,"MEAN_MOTION_DDOT":0},{"OBJECT_NAME":"STARLINK-33887","OBJECT_ID":"2025-085S","EPOCH":"2025-09-15T02:49:11.129088","MEAN_MOTION":15.2758982,"ECCENTRICITY":0.00017638,"INCLINATION":43.0049,"RA_OF_ASC_NODE":302.0075,"ARG_OF_PERICENTER":285.9305,"MEAN_ANOMALY":74.1352,"EPHEMERIS_TYPE":0,"CLASSIFICATION_TYPE":"U","NORAD_CAT_ID":63680,"ELEMENT_SET_NO":999,"REV_AT_EPOCH":2208,"BSTAR":0.00069560106,"MEAN_MOTION_DOT":0.00018934,"MEAN_MOTION_DDOT":0}]
